"spkid","full_name","pdes","name","prefix","neo","pha","sats","H","G","M1","M2","K1","K2","PC","diameter","extent","albedo","rot_per","GM","BV","UB","IR","spec_B","spec_T","H_sigma","diameter_sigma","orbit_id","epoch","epoch_mjd","epoch_cal","equinox","e","a","q","i","om","w","ma","ad","n","tp","tp_cal","per","per_y","moid","moid_ld","moid_jup","t_jup","sigma_e","sigma_a","sigma_q","sigma_i","sigma_om","sigma_w","sigma_ma","sigma_ad","sigma_n","sigma_tp","sigma_per","class","producer","data_arc","first_obs","last_obs","n_obs_used","n_del_obs_used","n_dop_obs_used","condition_code","rms","two_body","A1","A1_sigma","A2","A2_sigma","A3","A3_sigma","DT","DT_sigma"
3508232,"       (2006 TP130)","2006 TP130",,,N,N,0,6.60,,,,,,,,,,,,,,,,,,,"JPL 13",2459800.5,59800,2022-08-09.0000000,J2000,.2702063752969469,39.49484717000932,28.82308767329423,4.911643001141155,8.39570900512083,108.6058478711019,309.7812571079088,50.16660666672442,.003970940845374834,2472447.060310910607,2057-03-24.5603109,90658.61568280755,248.209762307481,27.8441,10836.088397,23.5737,5.417,9.8199E-6,.001338,.00075744,4.5188E-5,.00018887,.0048324,.0045617,.0016996,2.018E-7,.5073,4.6071,TNO,"Otto Matic",8772,1998-09-19,2022-09-25,106,,,2,.60602,,,,,,,,,
3378794,"       (2006 UP321)","2006 UP321",,,N,N,0,7.0518,,,,,,,,,,,,,,,,,.18906,,"JPL 6",2453999.5,53999,2006-09-21.0000000,J2000,.139759600514599,39.53523230256527,34.00980402970688,10.99328767887026,252.0604455190685,117.4204488346525,.1338998341694076,45.06066057542366,.003964857941510366,2453965.728340045293,2006-08-18.2283400,90797.7045611027,248.590566902403,33.0239,12851.911163,29.1602,5.490,.58403,24.028,2.4216,.77692,7.5951,1238.6,920.76,27.386,.0036145,232250.,82774.,TNO,"Otto Matic",59,2006-08-22,2006-10-20,6,,,9,.18039,,,,,,,,,
3378796,"       (2006 UR321)","2006 UR321",,,N,N,0,8.5124,,,,,,,,,,,,,,,,,0.,,"JPL 6",2454028.5,54028,2006-10-20.0000000,J2000,.2182526437530503,39.31467942531965,30.73414670243998,2.852120615457017,140.1437457567501,282.5354478808003,.007569968334544223,47.89521214819931,.003998268595480056,2454026.606688394296,2006-10-18.1066884,90038.97347140987,246.513274391266,29.7479,11576.990243,25.6978,5.491,1098.8,52849.,1893.8,211.46,18634.,4806700.,2998400.,64383.,8.062,7.4992E8,1.8155E8,TNO,"Otto Matic",1,2006-10-19,2006-10-20,3,,,9,.065802,,,,,,,,,
3378798,"       (2006 UT321)","2006 UT321",,,N,N,0,9.4078,,,,,,,,,,,,,,,,,0.,,"JPL 6",2454028.5,54028,2006-10-20.0000000,J2000,.2625593482246638,38.67364429645532,28.51951745650553,5.401115409427957,88.95948958377052,341.7163451001461,.00608739793660881,48.82777113640512,.004098089380090958,2454027.014576581423,2006-10-18.5145766,87845.81462496304,240.508732717216,27.5338,10715.328946,23.4526,5.372,4910.4,248870.,6379.9,12412.,43136.,1.692E7,9511500.,314210.,39.558,2.321E9,8.4795E8,TNO,"Otto Matic",1,2006-10-19,2006-10-20,3,,,9,.044769,,,,,,,,,
3363887,"       (2006 WS195)","2006 WS195",,,N,N,0,7.5,,,,,,,,,,,,,,,,,,,5,2459800.5,59800,2022-08-09.0000000,J2000,.2362496978873375,39.60420396799806,30.24772274549003,32.66862765613358,62.56244605915144,233.3732551951127,88.84007225104421,48.96068519050609,.00395450511025979,2437334.965179839433,1961-02-04.4651798,91035.41150218666,249.241373038156,29.3325,11415.329025,25.5676,4.645,.00036939,.015581,.021674,.00080148,.00094492,.079283,.075406,.019262,2.3337E-6,7.435,53.723,TNO,"Otto Matic",3692,2004-09-12,2014-10-22,31,,,4,.097997,,,,,,,,,
3424767,"       (2007 JF45)","2007 JF45",,,N,N,0,5.9,,,,,,,,,,,,,,,,,,,8,2459800.5,59800,2022-08-09.0000000,J2000,.08379940493183265,39.37243452218322,36.07304793850672,11.01618192515306,176.4489401333637,342.4796582327825,94.02857501604403,42.67182110585972,.003989474282086506,2436231.335652143414,1958-01-27.8356521,90237.45349518057,247.056683080577,35.0852,13654.107284,30.6655,5.513,2.4016E-5,.00082027,.0012091,2.4527E-5,.00046717,.010943,.011147,.00088901,1.2467E-7,2.0632,2.82,TNO,"Otto Matic",4026,2007-05-12,2018-05-20,225,,,2,.3721,,,,,,,,,
3485913,"       (2007 RL314)","2007 RL314",,,N,N,0,6.96,,,,,,,,,,,,,,,,,,,"JPL 12",2459800.5,59800,2022-08-09.0000000,J2000,.03462996879753823,40.71218208552037,39.3023204902191,21.01003741477898,211.3179830034501,34.20664674025728,113.4531807030163,42.12204368082163,.003794176270189502,2429898.573303971774,1940-09-26.0733040,94882.25489903759,259.773456260199,38.31,14909.1027,33.9638,5.347,7.4087E-5,.014351,.014555,.00022121,.00067189,.45455,.46805,.014848,2.0062E-6,107.61,50.17,TNO,"Otto Matic",5822,2006-09-18,2022-08-27,32,,,4,.26042,,,,,,,,,
3715701,"       (2007 RY326)","2007 RY326",,,N,N,0,7.76,,,,,,,,,,,,,,,,,,,"JPL 7",2459800.5,59800,2022-08-09.0000000,J2000,.0731480038783342,39.15291331961641,36.28895586426503,25.45137677488727,232.3034964575741,175.4873785901564,319.9536682320013,42.0168707749678,.004023073337858357,2469754.663994762515,2049-11-09.1639948,89483.82735464683,244.993367158513,35.3002,13737.778834,31.2928,5.073,8.5785E-5,.0084037,.0047371,.00010474,.00060467,.10922,.10392,.0090184,1.2953E-6,22.649,28.81,TNO,"Otto Matic",5469,2007-09-06,2022-08-27,38,,,4,.36466,,,,,,,,,
3423300,"       (2007 TV431)","2007 TV431",,,N,N,0,9.3,,,,,,,,,,,,,,,,,,,6,2459800.5,59800,2022-08-09.0000000,J2000,.237626621756864,39.68507478423435,30.25484452908823,1.801429664681019,44.32690974948246,2.319659393642257,12.10661823772288,49.11530503938047,.003942423449442298,2456729.643103733442,2014-03-13.1431037,91314.39192584099,250.005179810653,29.2651,11389.098967,25.264,5.494,.00011126,.0069779,.00092183,.00037847,.0017487,.017808,.010157,.008636,1.0398E-6,2.7011,24.084,TNO,"Otto Matic",3713,2007-10-14,2017-12-13,30,,,3,.14682,,,,,,,,,
3427752,"       (2007 TQ436)","2007 TQ436",,,N,N,0,11.182,,,,,,,,,,,,,,,,,0.,,"JPL 6",2454411.5,54411,2007-11-07.0000000,J2000,.2404192533445977,39.17443262809287,29.75614478544854,9.017221504152461,16.2535262203417,358.3817626788617,.09698720959748487,48.59272047073721,.004019758859772338,2454387.372381159954,2007-10-13.8723812,89557.61093101712,245.195375581156,28.7567,11191.244939,24.8036,5.394,.39924,19.234,1.0308,2.1395,.38982,999.58,594.44,23.859,.0029605,147860.,65958.,TNO,"Otto Matic",54,2007-10-14,2007-12-07,7,,,9,.17353,,,,,,,,,
3427533,"       (2008 AQ118)","2008 AQ118",,,N,N,0,6.04,,,,,,,,,,,,,,,,,,,16,2459800.5,59800,2022-08-09.0000000,J2000,.05702090163590352,41.28240545742553,38.92844547654418,24.63680018728079,312.4845219929645,196.1777939300632,2.942876268554741,43.63636543830687,.003715836371834582,2459008.517798937205,2020-06-08.0177989,96882.6299050033,265.250184544841,37.9484,14768.378828,33.5978,5.238,1.9436E-5,.0010909,.00023162,6.0324E-5,2.5449E-5,.0096365,.0085693,.0011531,1.4729E-7,2.3093,3.8402,TNO,"Otto Matic",6864,2003-04-26,2022-02-09,213,,,2,.5521,,,,,,,,,
3603589,"       (2008 LD18)","2008 LD18",,,N,N,0,8.37,,,,,,,,,,,,,,,,,0.,,"JPL 4",2454640.5,54640,2008-06-23.0000000,J2000,.3053634967607011,40.25908643274368,27.96543102324977,14.56983148108866,106.5250011704413,121.5981160472196,24.2306124925702,52.55274184223759,.003858408454596853,2448360.549917550282,1991-04-14.0499176,93302.71904497335,255.448922778846,26.9802,10499.884434,22.6832,5.256,.14984,2.8349,4.0895,.42726,.38652,39.158,14.454,3.7005,.00040754,4387.,9855.,TNO,"Otto Matic",77,2008-06-07,2008-08-23,10,,,8,.11177,,,,,,,,,
3439307,"       (2008 UB332)","2008 UB332",,,N,N,0,6.9471,,,,,,,,,,,,,,,,,0.,,"JPL 6",2454766.5,54766,2008-10-27.0000000,J2000,.2431591806419014,39.49320834197867,29.89007216062323,33.30832250614637,110.9417550073349,284.8665893165639,.003903038333374135,49.0963445233341,.003971188017884097,2454765.517161031964,2008-10-26.0171610,90652.97295891138,248.194313371421,29.053,11306.55601,25.7122,4.598,88.52,4212.5,307.76,552.56,3725.1,508140.,298250.,5236.8,.63537,7.5103E7,1.4504E7,TNO,"Otto Matic",1,2008-10-26,2008-10-27,3,,,9,.46301,,,,,,,,,
3587880,"       (2009 DN143)","2009 DN143",,,N,N,0,8.8,,,,,,,,,,,,,,,,,,,6,2459800.5,59800,2022-08-09.0000000,J2000,.194356961041281,39.17170449427383,31.55841104995968,10.56231781806015,95.06467746036451,129.8837754487456,352.3756937840411,46.78499793858798,.004020178804391928,2461697.009231785812,2027-10-18.5092318,89548.25581556484,245.169762670951,30.5603,11893.151951,26.1821,5.424,.00029108,.012219,.0052157,3.922E-5,.0035899,.084853,.051599,.014593,1.881E-6,12.976,41.898,TNO,"Otto Matic",2191,2009-02-18,2015-02-18,21,,,4,.099109,,,,,,,,,
3587886,"       (2009 DT143)","2009 DT143",,,N,N,0,9.8959,,,,,,,,,,,,,,,,,.33182,,4,2459800.5,59800,2022-08-09.0000000,J2000,.1236105955060788,38.1729722999937,33.45438846175443,30.16468578646709,165.4980427642899,89.2017091182059,325.9122496632898,42.89155613823298,.004178978224355363,2467957.458114317168,2044-12-07.9581143,86145.45964893908,235.853414507705,32.5812,12679.625604,28.9158,4.784,.06418,.95246,1.8512,.38688,.31169,13.632,8.4592,1.0702,.00015641,1977.4,3224.2,TNO,"Otto Matic",64,2009-02-22,2009-04-27,8,,,7,.10425,,,,,,,,,
3587893,"       (2009 JZ18)","2009 JZ18",,,N,N,0,7.75,,,,,,,,,,,,,,,,,,,"JPL 13",2459800.5,59800,2022-08-09.0000000,J2000,.2438350347085961,39.11350270148789,29.57626041269582,23.89444379432315,37.16009002878022,176.8403627872339,358.6774956482472,48.65074499027995,.004029155319604128,2460128.733648704989,2023-07-03.2336487,89348.75214375468,244.62355138605,28.5711,11119.014987,24.1278,4.995,2.1057E-5,.0013528,.0002047,4.1191E-5,4.218E-5,.0019799,.0012146,.0016827,2.0903E-7,.28757,4.6354,TNO,"Otto Matic",6270,2005-04-02,2022-06-02,119,,,2,.6568,,,,,,,,,
